#dP2021  3 11  6  0  0.00000000      96 __u+U ITR00 EXT  IAC
## 2148 367200.00000000   900.00000000 59284 0.2500000000000
+  115   C06C07C08C09C10C11C12C13C14C19C20C21C22C23C24C25C26
+        C27C28C29C30C32C33C34C35C36C37C38C39C40C41C42C43C44
+        C45C46E01E02E03E04E05E07E08E09E11E12E13E14E15E18E19
+        E21E24E25E26E27E30E31E33G01G02G03G04G05G06G07G08G09
+        G10G11G12G13G14G15G16G17G18G19G20G21G22G23G24G25G26
+        G27G28G29G30G31G32J01J02J03R01R02R03R04R05R07R08R09
+        R11R12R13R14R15R16R17R18R19R20R21R22R24  0  0  0  0
++         9  9  8  9 10 10  9 10  8  8 10 10  8  9  9  8  9
++         9 10  9  9  9 10 10  9  9 10 10 11 11  9  9  9  9
++        10 10  8  8  7  9  7  7  9 10 10  9  9  8  8  8  9
++         8  9  8  9  9  8  9 10  9  8  9  8  8  8 10  8  8
++         9  9  8  8 10  8  9  8  8  8  8  9 10  9  8  8  9
++         9  9  7  9  8 10 12  8 11  8  9  7  9  7  7  8  9
++         9  8  8  9  9  9  8  8  9 10  8 10  8  0  0  0  0
%c M  cc GPS ccc cccc cccc cccc cccc ccccc ccccc ccccc ccccc
%c cc cc ccc ccc cccc cccc cccc cccc ccccc ccccc ccccc ccccc
%f  0.0000000  0.000000000  0.00000000000  0.000000000000000
%f  0.0000000  0.000000000  0.00000000000  0.000000000000000
%i    0    0    0    0      0      0      0      0         0
%i    0    0    0    0      0      0      0      0         0
/* IAC                                ULTRA-RAPID PREDICTION
/* S/V CLOCKS ARE ALIGNED TO GNSS TIME                      
/* G:C1WC2W R:C1PC2P E:C1XC5X C:C2IC6I J:C1CC2S             
/* PCV:IGS14_2134 OL/AL:FES2004  NONE     YN ORB:CoN CLK:CoN
*  2021 03 11  9  0  0.00000000
PC06  -6690.536242  28526.144748 -29684.684210    227.943803
PC07 -21768.849853  24871.375534  26153.068641     55.713381
PC08 -19378.816027  37535.901359   3291.722852   -840.545500
PC09   5395.140454  36353.179216 -19983.256861    738.262337
PC10  -6407.287200  27066.505349  31811.582192    -11.895389
PC11  -5013.377709  19346.918703  19553.926891   -813.988251
PC12 -15879.188068   1781.344567  22913.112492    917.984735
PC13  -9671.343037  39685.901728 -10834.592810    237.057878
PC14 -13972.485937  13266.450014 -20139.020819    244.638182
PC19   3135.753833 -15690.258354  22893.527033    819.047978
PC20  21383.611146  -9430.827810  15290.337105   -865.931870
PC21 -27687.780682  -2850.921706   1872.257234   -817.325042
PC22 -17441.746021 -13064.850588  17422.817510   -850.247417
PC23   7249.464557  16537.044921  21275.666696   -815.506542
PC24 -19413.642598  18241.318213  -8376.795718   -718.260112
PC25  -7579.358447  25024.435904   9774.831483   -888.707494
PC26 -18872.539343   2568.282328 -20417.806073    998.653235
PC27  18615.880805   8429.178436 -19010.084042    558.349692
PC28  14525.642359  23451.975943  -4214.416113    -38.208623
PC29  -2862.102009 -24552.999664 -12963.464199    425.033822
PC30  11666.625789 -11425.598264 -22635.249165    513.066594
PC32  27727.128368   2610.500443  -1823.841156   -848.325798
PC33  -3111.374591  15711.876634 -22841.101916   -887.030413
PC34 -11312.691865  12036.042217  22481.623224   -660.002744
PC35 -15201.407088 -23098.422978   3910.043319   -318.469516
PC36   8424.396858 -24852.545229  -9469.529880   -681.827309
PC37  18595.714392  -1194.383454  20777.240438   -813.105692
PC38 -17160.016440  38584.012347    214.709350    196.709093
PC39   -589.985397  31129.979419 -28365.495743     90.866097
PC40 -12004.205745  21891.625902  33965.665673    201.380117
PC41  17269.442923  13105.106717 -17516.058750   -870.021324
PC42 -21889.594833   9064.969985 -14689.402042   -868.701656
PC43   2296.580885  24413.030497  13291.514855   -572.757708
PC44 -19015.752774  -8031.100852  18790.865300    141.637433
PC45  -7276.224138 -16374.822096 -21389.125580    445.302363
PC46  19052.904799 -18894.100246   7591.603318    429.802195
PE01 -24599.127121  16209.488803   2943.662439  -1063.148732
PE02  24525.467286 -16266.333592  -3069.911860    204.204656
PE03  17722.568784  -7950.821808  22338.926931   -407.628606
PE04   1607.113385  19278.663503 -22397.136594   -726.563571
PE05  26923.885694   8208.363043   9163.852279   -297.974187
PE07 -20329.401796 -19428.628688   9236.742118   -511.300426
PE08  -2091.700395 -19253.011235  22385.436552   6034.895541
PE09  20587.436804  19223.021819  -9116.976706   5738.578267
PE11   9825.304211  23630.886631 -14855.747421   6220.621117
PE12  -2525.877483  29202.211372   4040.560357   5315.940777
PE13  -9645.503159 -23916.793559  14549.532861    413.368793
PE14  25408.729602   2854.787585 -19640.364918  -1357.877544
PE15   2372.493922 -29237.616619  -3994.130631    825.241924
PE18 -19606.249795  -6303.087052  12020.278856  -1484.787094
PE19 -19412.010601   6065.654692 -21503.301676    223.992950
PE21 -25530.588102   3198.982262 -14647.268400   -652.973808
PE24  10965.432511  12730.770213  24350.442089   -786.694232
PE25  25453.370139  -3043.565401  14791.361540   -528.204467
PE26 -16183.945373  -3751.934483  24507.312733   2055.080068
PE27 -11720.856482 -12166.560624 -24308.392857     12.843909
PE30   9788.421572 -20368.528040 -19119.430084   3116.139258
PE31  -8907.476289  20296.749868  19624.859012   -479.064171
PE33 -12993.444370  17322.513316  20184.822529   -466.426004
PG01 -13544.815793  17567.565216  14097.840170    743.810840
PG02  13908.680881   6431.052438 -21034.131940   -585.000073
PG03 -21377.016180  13133.943286  -8629.079076   -104.936384
PG04 -13501.529859   7837.797984 -21490.059904   -185.485686
PG05  25110.383758  -2548.551098  -8721.036231    -35.908706
PG06   7250.899866  19255.446408 -16700.262480      0.308806
PG07  -6394.800945  25464.990608   -978.329793     86.157665
PG08 -18763.804520    876.018467  18895.903294    -13.292643
PG09  -2530.785397  16950.467506 -20342.739074   -330.091113
PG10  -5881.315668 -13955.791038  21939.951430    -78.616946
PG11 -12297.250130  12333.370666  19694.848298     -2.055213
PG12  24025.743743  -9786.869337  -5550.632737    -12.343659
PG13  20594.037062   9687.443799  13662.612644    106.504375
PG14   3719.997357  14817.887326  21716.012423     99.837590
PG15  18824.752500  -3275.951501  18229.555823   -163.913717
PG16 -24560.842081  -1933.298510 -10754.154717   -292.292840
PG17  12015.186450  21688.732986   9948.331492    407.779312
PG18   4741.532694 -26023.482182   2013.415896    350.199592
PG19  17269.415657  20209.396528    963.253854    -27.856885
PG20   6617.122564 -18078.509564  18132.502386    524.301009
PG21 -15491.194076   9686.667155  19851.389298    102.213594
PG22 -24586.856241   9740.515076   1133.764622   -662.850515
PG23   6603.853894 -16712.265134  19523.746919    117.754941
PG24  14881.158883 -12735.046002  17517.265874      1.219532
PG25  13386.872219 -16268.854881 -16262.372264     96.589228
PG26 -18139.376149  -7336.453770 -18133.546146     56.456915
PG27 -22186.906366 -10735.439307  10206.359303    -91.843856
PG28   6145.971079  14100.147863  22198.218369    603.828780
PG29   3115.957235 -16511.105994 -20602.727442   -309.781987
PG30   2109.162928  24189.626623  10542.530309   -396.764546
PG31  -9268.810396 -16729.374375 -18311.574060   -104.914671
PG32 -14561.734574 -20763.302834   8280.416827     20.941038
PJ01 -29700.589275  15810.157941 -20875.784049   -354.089976
PJ02 -30251.308913  29315.415808   7121.194019      3.165409
PJ03 -25582.046142  23620.581021  28842.868547     -1.600196
PR01 -22158.974901  -9264.724455   8576.187736     76.230451
PR02 -22415.173556    226.291252 -12186.791893    470.292202
PR03  -8364.260947   8877.552917 -22365.692135     32.201010
PR04  10303.520126  12179.829108 -19872.211876     77.399840
PR05  23089.399160   8840.684893  -6216.055136     67.961943
PR07   7597.991126  -9169.108087  22591.514747    -42.532270
PR08 -10313.324212 -12310.910128  19881.249070    -57.849679
PR09  19302.243246 -12611.545498  10995.737452    -17.685479
PR11   1900.336116 -15823.428966 -19912.634528      2.406178
PR12 -12465.330687  -2219.629550 -22127.874903    211.637689
PR13 -19112.533794  12325.767199 -11578.604838    -51.847565
PR14 -14642.347946  19859.875714   6457.265334     61.893668
PR15  -1707.186393  15643.365149  20090.998419    104.991340
PR16  13118.857974   1346.178213  21780.303522    -12.337797
PR17  -2401.482267  19218.438643  16628.799167    407.010222
PR18   6297.298259  24657.774556   1200.244445     69.402487
PR19  11090.420202  17938.826586 -14342.370231   -135.262033
PR20  10184.585250  -1899.886027 -23297.846658    -44.969429
PR21   1797.299068 -19941.673895 -15789.479685   -193.549749
PR22  -6702.411708 -24669.336194    -44.139538   -102.016567
PR24 -10434.826878   2899.703799  23114.141561     34.571760
EOF
